COMMENT,ORIGINATOR,NORAD_CAT_ID,OBJECT_NAME,OBJECT_TYPE,CLASSIFICATION_TYPE,INTLDES,EPOCH,EPOCH_MICROSECONDS,MEAN_MOTION,ECCENTRICITY,INCLINATION,RA_OF_ASC_NODE,ARG_OF_PERICENTER,MEAN_ANOMALY,EPHEMERIS_TYPE,ELEMENT_SET_NO,REV_AT_EPOCH,BSTAR,MEAN_MOTION_DOT,MEAN_MOTION_DDOT,FILE,TLE_LINE0,TLE_LINE1,TLE_LINE2,OBJECT_ID,OBJECT_NUMBER,SEMIMAJOR_AXIS,PERIOD,APOGEE,PERIGEE
"GENERATED VIA SPACETRACK.ORG API","JSPOC","36588","SERVIS 2","PAYLOAD","U","10023A","2016-01-10 03:05:10","552704","13.15851288","0.0017043","100.4333","199.2552","318.508","149.923","0","999","26957","5.3686e-05","-2.4e-07","0","1978387","0 SERVIS 2","1 36588U 10023A   16010.12859436 -.00000024  00000-0  53686-4 0  9991","2 36588 100.4333 199.2552 0017043 318.5080 149.9230 13.15851288269578","2010-023A","36588","7578.745","109.434","1213.526","1187.693"
"GENERATED VIA SPACETRACK.ORG API","JSPOC","18153","SL-14 R/B","ROCKET BODY","U","87055B","2016-01-10 03:05:40","279488","14.83063785","0.0022026","82.4994","236.4502","13.6804","346.5002","0","999","54068","1.9406e-05","1.82e-06","0","1978416","0 SL-14 R/B","1 18153U 87055B   16010.12893842  .00000182  00000-0  19406-4 0  9993","2 18153  82.4994 236.4502 0022026  13.6804 346.5002 14.83063785540680","1987-055B","18153","6997.806","97.096","635.085","604.258"
"GENERATED VIA SPACETRACK.ORG API","JSPOC","13354","SL-8 R/B","ROCKET BODY","U","82069B","2016-01-10 03:05:54","59424","13.78809594","0.0052306","82.9588","10.9867","162.0056","198.297","0","999","68557","9.1718e-05","1.1e-06","0","1978450","0 SL-8 R/B","1 13354U 82069B   16010.12909791  .00000110  00000-0  91718-4 0  9999","2 13354  82.9588  10.9867 0052306 162.0056 198.2970 13.78809594685576","1982-069B","13354","7346.248","104.437","1006.539","929.688"
"GENERATED VIA SPACETRACK.ORG API","JSPOC","7337","COSMOS 660","PAYLOAD","U","74044A","2016-01-10 03:06:03","24288","14.35181417","0.0559614","82.946","212.1231","117.7752","248.1333","0","999","9145","0.000138","2.662e-05","0","1978420","0 COSMOS 660","1 07337U 74044A   16010.12920167  .00002662  00000-0  13800-3 0  9996","2 07337  82.9460 212.1231 0559614 117.7752 248.1333 14.35181417 91451","1974-044A","7337","7152.600","100.335","1174.735","374.196"
"GENERATED VIA SPACETRACK.ORG API","JSPOC","25978","CLEMENTINE","PAYLOAD","U","99064B","2016-01-10 03:06:17","390880","14.95059783","0.0007841","98.2578","192.0768","205.8196","274.0822","0","999","87270","0.00015227","1.604e-05","0","1978407","0 CLEMENTINE","1 25978U 99064B   16010.12936795  .00001604  00000-0  15227-3 0  9990","2 25978  98.2578 192.0768 0007841 205.8196 274.0822 14.95059783872706","1999-064B","25978","6960.324","96.317","587.646","576.731"
"GENERATED VIA SPACETRACK.ORG API","JSPOC","40909","XW-2E","PAYLOAD","U","15049L","2016-01-10 03:06:17","339040","15.13428439","0.001383","97.4544","20.7755","227.3241","222.6344","0","999","1695","0.00018158","3.186e-05","0","1978475","0 XW-2E","1 40909U 15049L   16010.12936735  .00003186  00000-0  18158-3 0  9999","2 40909  97.4544  20.7755 0013830 227.3241 222.6344 15.13428439 16953","2015-049L","40909","6903.890","95.148","535.303","516.207"
"GENERATED VIA SPACETRACK.ORG API","JSPOC","19909","COSMOS 2015","PAYLOAD","U","89025H","2016-01-10 03:06:49","975776","12.44016284","0.0024849","74.0107","119.0858","125.3181","301.2989","0","999","21708","-3.6125e-05","-2.1e-07","0","1978363","0 COSMOS 2015","1 19909U 89025H   16010.12974509 -.00000021  00000-0 -36125-4 0  9993","2 19909  74.0107 119.0858 0024849 125.3181 301.2989 12.44016284217081","1989-025H","19909","7867.760","115.754","1509.176","1470.074"
"GENERATED VIA SPACETRACK.ORG API","JSPOC","10961","COSMOS 1023","PAYLOAD","U","78063A","2016-01-10 03:07:12","367200","14.36366228","0.0017527","74.075","235.5337","282.8602","77.0593","0","999","96588","2.8854e-05","5.8e-07","0","1978383","0 COSMOS 1023","1 10961U 78063A   16010.13000425  .00000058  00000-0  28854-4 0  9998","2 10961  74.0750 235.5337 0017527 282.8602  77.0593 14.36366228965888","1978-063A","10961","7148.666","100.252","783.061","758.002"
"GENERATED VIA SPACETRACK.ORG API","JSPOC","13949","COSMOS 1448","PAYLOAD","U","83023A","2016-01-10 03:07:39","207360","13.75840355","0.0029228","82.9555","16.0308","338.5334","89.2103","0","999","64597","2.4066e-05","3.8e-07","0","1978418","0 COSMOS 1448","1 13949U 83023A   16010.13031490  .00000038  00000-0  24066-4 0  9994","2 13949  82.9555  16.0308 0029228 338.5334  89.2103 13.75840355645977","1983-023A","13949","7356.814","104.663","1000.182","957.177"
"GENERATED VIA SPACETRACK.ORG API","JSPOC","39446","UWE-3","PAYLOAD","U","13066AG","2016-01-10 03:09:05","751648","14.77454068","0.0071003","97.6998","66.264","189.2868","170.7035","0","999","11380","0.00010397","7.19e-06","0","1978430","0 UWE-3","1 39446U 13066AG  16010.13131657  .00000719  00000-0  10397-3 0  9997","2 39446  97.6998  66.2640 0071003 189.2868 170.7035 14.77454068113805","2013-066AG","39446","7015.508","97.464","687.186","587.561"
"GENERATED VIA SPACETRACK.ORG API","JSPOC","40554","GONETS M 13 (M23)","PAYLOAD","U","15020C","2016-01-10 03:09:14","267232","12.4288435","0.0013367","82.4847","245.4218","2.5277","357.5872","0","999","3534","0","1e-07","0","1978460","0 GONETS M 13 (M23)","1 40554U 15020C   16010.13141513  .00000010  00000-0  00000+0 0  9993","2 40554  82.4847 245.4218 0013367   2.5277 357.5872 12.42884350 35341","2015-020C","40554","7872.536","115.859","1504.924","1483.878"
"GENERATED VIA SPACETRACK.ORG API","JSPOC","40111","YAOGAN 20C","PAYLOAD","U","14047C","2016-01-10 03:09:14","6304","13.45148197","0.0049662","63.4026","99.6505","2.7307","357.3987","0","999","6979","0","-9e-07","0","1978461","0 YAOGAN 20C","1 40111U 14047C   16010.13141211 -.00000090  00000-0  00000+0 0  9994","2 40111  63.4026  99.6505 0049662   2.7307 357.3987 13.45148197 69796","2014-047C","40111","7468.299","107.051","1127.254","1053.075"
"GENERATED VIA SPACETRACK.ORG API","JSPOC","271","MIDAS 5 (STRONGBACK)","PAYLOAD","U","62010A","2016-01-10 03:09:18","174240","9.41304705","0.0327832","86.666","150.2299","29.7787","332.1344","0","999","84743","-0.0048083","-1.9e-07","0","1978360","0 MIDAS 5 (STRONGBACK)","1 00271U 62010A   16010.13146035 -.00000019  00000-0 -48083-2 0  9997","2 00271  86.6660 150.2299 0327832  29.7787 332.1344  9.41304705847436","1962-010A","271","9475.053","152.979","3407.541","2786.296"
"GENERATED VIA SPACETRACK.ORG API","JSPOC","12637","COSMOS 1288","PAYLOAD","U","81074B","2016-01-10 03:09:18","334944","12.4666077","0.0018121","74.0339","100.5951","210.5778","229.9387","0","999","56692","8.7917e-05","-3e-08","0","1978420","0 COSMOS 1288","1 12637U 81074B   16010.13146221 -.00000003  00000-0  87917-4 0  9997","2 12637  74.0339 100.5951 0018121 210.5778 229.9387 12.46660770566928","1981-074B","12637","7856.630","115.508","1492.732","1464.258"
"GENERATED VIA SPACETRACK.ORG API","JSPOC","13381","COSMOS 1394","PAYLOAD","U","82073G","2016-01-10 03:09:22","350816","12.45142309","0.0012943","74.0147","132.7659","71.8997","352.825","0","999","52169","-8.8895e-05","-2.8e-07","0","1978385","0 COSMOS 1394","1 13381U 82073G   16010.13150869 -.00000028  00000-0 -88895-4 0  9991","2 13381  74.0147 132.7659 0012943  71.8997 352.8250 12.45142309521693","1982-073G","13381","7863.016","115.649","1495.058","1474.704"
"GENERATED VIA SPACETRACK.ORG API","JSPOC","29682","SL-12 R/B(AUX MOTOR)","ROCKET BODY","U","06062H","2016-01-10 03:09:42","962400","4.23466203","0.5661566","64.9938","333.6738","48.5097","7.7692","0","999","13978","0.00012013","2.2e-07","0","1979034","0 SL-12 R/B(AUX MOTOR)","1 29682U 06062H   16010.13174725 +.00000022 +00000-0 +12013-3 0  9993","2 29682 064.9938 333.6738 5661566 048.5097 007.7692 04.23466203139788","2006-062H","29682","16138.233","340.050","18896.866","623.331"
"GENERATED VIA SPACETRACK.ORG API","JSPOC","13416","COSMOS 1372 FUEL CORE","PAYLOAD","U","82052D","2016-01-10 03:09:47","137248","13.89892202","0.0031444","64.9019","247.3419","306.0724","115.5874","0","999","70743","3.1786e-05","-5.2e-07","0","1978402","0 COSMOS 1372 FUEL CORE","1 13416U 82052D   16010.13179557 -.00000052  00000-0  31786-4 0  9995","2 13416  64.9019 247.3419 0031444 306.0724 115.5874 13.89892202707430","1982-052D","13416","7307.145","103.605","951.987","906.034"
"GENERATED VIA SPACETRACK.ORG API","JSPOC","38997","HJ-1C","PAYLOAD","U","12064A","2016-01-10 03:09:47","266848","15.47431396","0.0015461","97.3111","36.5089","109.1343","334.1206","0","999","17635","0.00020838","0.00010635","0","1978474","0 HJ-1C","1 38997U 12064A   16010.13179707  .00010635  00000-0  20838-3 0  9991","2 38997  97.3111  36.5089 0015461 109.1343 334.1206 15.47431396176353","2012-064A","38997","6802.380","93.057","434.762","413.728"
"GENERATED VIA SPACETRACK.ORG API","JSPOC","8621","ATLAS CENTAUR R/B","ROCKET BODY","U","76010B","2016-01-10 03:09:49","129632","2.20595216","0.7193875","21.8318","334.6058","81.5658","1.9712","0","999","20141","-0.00021816","-7.6e-07","0","1979034","0 ATLAS CENTAUR R/B","1  8621U 76010B   16010.13181863 -.00000076 +00000-0 -21816-3 0  9996","2  8621 021.8318 334.6058 7193875 081.5658 001.9712 02.20595216201414","1976-010B","8621","24927.063","652.779","36481.145","616.710"
"GENERATED VIA SPACETRACK.ORG API","JSPOC","29516","SINOSAT 2","PAYLOAD","U","06048A","2016-01-10 03:09:57","224448","0.92882257","0.0041815","5.2154","100.9519","175.1738","184.6028","0","999","3200","0","-9.6e-07","0","1978433","0 SINOSAT 2","1 29516U 06048A   16010.13191232 -.00000096  00000-0  00000+0 0  9996","2 29516   5.2154 100.9519 0041815 175.1738 184.6028  0.92882257 32005","2006-048A","29516","44372.442","1550.349","38179.850","37808.764"
